LANDSAT 9               
1 49260U 21088A   24235.78047794  .00001363  00000+0  31255-3 0  9993
2 49260  98.2273 304.5540 0001187  90.8713 269.2622 14.57098789154388
